EOSSAT-1                
1 55053U 23001AW  26068.73619225  .00007695  00000+0  24844-3 0  9992
2 55053  97.3357 130.2294 0011263 110.3168 249.9285 15.32339828176689
STARLINK-33815          
1 63497U 25071E   26068.47234660  .00018500  00000+0  63531-3 0  9992
2 63497  53.1584 141.1464 0001162  71.7777 288.3350 15.30192762 52736
